NORAD_CAT_ID,OBJECT_NAME,OBJECT_TYPE,EPOCH,MEAN_MOTION,ECCENTRICITY,INCLINATION,RA_OF_ASC_NODE,ARG_OF_PERICENTER,MEAN_ANOMALY,BSTAR,MEAN_MOTION_DOT,MEAN_MOTION_DDOT,TLE_LINE0,TLE_LINE1,TLE_LINE2,SEMIMAJOR_AXIS,PERIOD,APOGEE,PERIGEE,DECAYED
56798.0,STARLINK-6068,PAYLOAD,2023-11-06 03:33:41,15.6994622,0.0002501,69.9966,326.6074,265.3236,94.7674,1.3309e-05,1.389e-05,0.0,0 STARLINK-6068,1 56798U 23078AH  23310.14839940  .00001389  00000-0  13309-4 0  9993,2 56798  69.9966 326.6074 0002501 265.3236  94.7674 15.69946220 25249,6737.188,91.723,360.738,357.368,0.0
56798.0,STARLINK-6068,PAYLOAD,2023-11-06 11:12:32,15.6986908,0.000199,69.9994,325.7094,283.9659,76.1315,-4.5662e-05,-5.685e-05,0.0,0 STARLINK-6068,1 56798U 23078AH  23310.46704087 -.00005685  00000-0 -45662-4 0  9993,2 56798  69.9994 325.7094 0001990 283.9659  76.1315 15.69869080 25297,6737.409,91.727,360.614,357.933,0.0
56798.0,STARLINK-6068,PAYLOAD,2023-11-06 18:51:18,15.6987869,0.000225,69.9985,324.8134,287.0143,73.0806,-4.7849e-05,-5.949e-05,0.0,0 STARLINK-6068,1 56798U 23078AH  23310.78562609 -.00005949  00000-0 -47849-4 0  9992,2 56798  69.9985 324.8134 0002250 287.0143  73.0806 15.69878690 25349,6737.381,91.727,360.762,357.73,0.0
56798.0,STARLINK-6068,PAYLOAD,2023-11-07 04:01:46,15.69903547,0.0002661,69.9986,323.7387,279.3338,80.7557,-6.1319e-06,-9.49e-06,0.0,0 STARLINK-6068,1 56798U 23078AH  23311.16790383 -.00000949  00000-0 -61319-5 0  9991,2 56798  69.9986 323.7387 0002661 279.3338  80.7557 15.69903547 25409,6737.31,91.725,360.968,357.382,0.0
56798.0,STARLINK-6068,PAYLOAD,2023-11-07 11:40:29,15.69937312,0.0002629,69.999,322.8427,271.3624,88.727,4.4569e-05,5.152e-05,0.0,0 STARLINK-6068,1 56798U 23078AH  23311.48645599  .00005152  00000-0  44569-4 0  9990,2 56798  69.9990 322.8427 0002629 271.3624  88.7270 15.69937312 25455,6737.213,91.723,360.85,357.307,0.0
56798.0,STARLINK-6068,PAYLOAD,2023-11-07 17:47:30,15.69934487,0.0002299,70.0003,322.1259,296.8289,63.2671,3.2728e-05,3.726e-05,0.0,0 STARLINK-6068,1 56798U 23078AH  23311.74132882  .00003726  00000-0  32728-4 0  9994,2 56798  70.0003 322.1259 0002299 296.8289  63.2671 15.69934487 25498,6737.221,91.724,360.635,357.538,0.0
56798.0,STARLINK-6068,PAYLOAD,2023-11-08 02:59:01,15.69092099,0.0004542,69.9979,321.0563,301.9354,58.14,-0.00097258,-0.00111754,0.0,0 STARLINK-6068,1 56798U 23078AH  23312.12432758 -.00111754  00000-0 -97258-3 0  9993,2 56798  69.9979 321.0563 0004542 301.9354  58.1400 15.69092099 25551,6739.633,91.773,364.559,358.436,0.0
56798.0,STARLINK-6068,PAYLOAD,2023-11-08 14:00:01,15.69964499,0.0003391,69.9997,319.7602,281.0989,156.3437,-0.00073238,-0.00087511,0.0,0 STARLINK-6068,1 56798U 23078AH  23312.58334491 -.00087511  00000-0 -73238-3 0  9993,2 56798  69.9997 319.7602 0003391 281.0989 156.3437 15.69964499 25623,6737.136,91.722,361.285,356.716,0.0
56798.0,STARLINK-6068,PAYLOAD,2023-11-08 16:00:00,15.69961116,0.0003385,69.9998,319.5259,278.2257,270.0556,-0.00085503,-0.00101942,0.0,0 STARLINK-6068,1 56798U 23078AH  23312.66667824 -.00101942  00000-0 -85503-3 0  9994,2 56798  69.9998 319.5259 0003385 278.2257 270.0556 15.69961116  5895,6737.145,91.722,361.291,356.73,0.0
56798.0,STARLINK-6068,PAYLOAD,2023-11-09 03:26:04,15.69918841,0.0002995,69.9983,318.1857,284.3964,75.6899,1.4203e-05,1.495e-05,0.0,0 STARLINK-6068,1 56798U 23078AH  23313.14310924  .00001495  00000-0  14203-4 0  9994,2 56798  69.9983 318.1857 0002995 284.3964  75.6899 15.69918841 25716,6737.266,91.724,361.149,357.113,0.0
56798.0,STARLINK-6068,PAYLOAD,2023-11-09 09:33:33,15.69562728,0.0012142,69.9993,317.4725,15.0135,345.1418,-0.00037765,-0.00044898,0.0,0 STARLINK-6068,1 56798U 23078AH  23313.39830602 -.00044898  00000-0 -37765-3 0  9994,2 56798  69.9993 317.4725 0012142  15.0135 345.1418 15.69562728 25752,6738.285,91.745,368.332,351.969,0.0
56798.0,STARLINK-6068,PAYLOAD,2023-11-09 18:00:00,15.68838855,0.0003321,70.0002,316.4823,271.8405,276.2096,-0.0087349,-0.00902327,0.0,0 STARLINK-6068,1 56798U 23078AH  23313.75001157 -.00902327  00000-0 -87349-2 0  9991,2 56798  70.0002 316.4823 0003321 271.8405 276.2096 15.68838855 25803,6740.358,91.788,364.461,359.984,0.0
56798.0,STARLINK-6068,PAYLOAD,2023-11-09 22:00:00,15.68487325,0.000338,70.0002,316.015,269.629,139.3424,-0.0081905,-0.00840301,0.0,0 STARLINK-6068,1 56798U 23078AH  23313.91667824 -.00840301  00000-0 -81905-2 0  9993,2 56798  70.0002 316.0150 0003380 269.6290 139.3424 15.68487325  5987,6741.365,91.808,365.508,360.951,0.0
56798.0,STARLINK-6068,PAYLOAD,2023-11-10 14:00:01,15.67243069,0.0003376,69.9994,314.1466,273.4057,297.2832,-0.009838,-0.0096182,0.0,0 STARLINK-6068,1 56798U 23078AH  23314.58334491 -.00961820  00000-0 -98380-2 0  9993,2 56798  69.9994 314.1466 0003376 273.4057 297.2832 15.67243069  6041,6744.932,91.881,369.075,364.52,0.0
56798.0,STARLINK-6068,PAYLOAD,2023-11-10 20:00:01,15.66688003,0.0003443,69.9995,313.4467,267.9542,272.5963,-0.0088234,-0.0084098,0.0,0 STARLINK-6068,1 56798U 23078AH  23314.83334491 -.00840980  00000-0 -88234-2 0  9991,2 56798  69.9995 313.4467 0003443 267.9542 272.5963 15.66688003 25971,6746.525,91.914,370.713,366.068,0.0
56798.0,STARLINK-6068,PAYLOAD,2023-11-10 22:00:00,15.66535758,0.0003583,69.9994,313.2136,265.9066,24.486,-0.0089654,-0.00848524,0.0,0 STARLINK-6068,1 56798U 23078AH  23314.91667824 -.00848524  00000-0 -89654-2 0  9998,2 56798  69.9994 313.2136 0003583 265.9066  24.4860 15.66535758  6040,6746.963,91.923,371.245,366.41,0.0
56798.0,STARLINK-6068,PAYLOAD,2023-11-11 06:00:02,15.65914837,0.0003645,69.9996,312.2814,271.1148,98.249,-0.0099136,-0.00922321,0.0,0 STARLINK-6068,1 56798U 23078AH  23315.25002315 -.00922321  00000-0 -99136-2 0  9998,2 56798  69.9996 312.2814 0003645 271.1148  98.2490 15.65914837 26041,6748.746,91.959,373.071,368.151,0.0
56798.0,STARLINK-6068,PAYLOAD,2023-11-11 14:00:01,15.6528482,0.0003446,69.9993,311.3502,274.261,173.157,-0.010597,-0.0095764,0.0,0 STARLINK-6068,1 56798U 23078AH  23315.58334491 -.00957640  00000-0 -10597-1 0  9992,2 56798  69.9993 311.3502 0003446 274.2610 173.1570 15.65284820  5994,6750.557,91.996,374.748,370.096,0.0
56798.0,STARLINK-6068,PAYLOAD,2023-11-11 22:00:01,15.64582917,0.0003336,69.9995,310.4203,266.3821,258.4568,-0.0097696,-0.00854149,0.0,0 STARLINK-6068,1 56798U 23078AH  23315.91668981 -.00854149  00000-0 -97696-2 0  9999,2 56798  69.9995 310.4203 0003336 266.3821 258.4568 15.64582917  6046,6752.576,92.037,376.693,372.188,0.0
56798.0,STARLINK-6068,PAYLOAD,2023-11-12 12:00:02,15.63470896,0.0003352,69.9989,308.7944,271.887,296.4181,-0.01088,-0.00918508,0.0,0 STARLINK-6068,1 56798U 23078AH  23316.50002315 -.00918508  00000-0 -10880-1 0  9997,2 56798  69.9989 308.7944 0003352 271.8870 296.4181 15.63470896 26231,6755.777,92.103,379.907,375.377,0.0
56798.0,STARLINK-6068,PAYLOAD,2023-11-12 14:00:01,15.6332564,0.0003485,69.999,308.5623,270.2119,46.8962,-0.011436,-0.00956194,0.0,0 STARLINK-6068,1 56798U 23078AH  23316.58334491 -.00956194  00000-0 -11436-1 0  9999,2 56798  69.9990 308.5623 0003485 270.2119  46.8962 15.63325640  5935,6756.195,92.111,380.415,375.706,0.0
56798.0,STARLINK-6068,PAYLOAD,2023-11-12 22:00:00,15.62626698,0.0003477,69.9992,307.6348,265.4875,126.6285,-0.010562,-0.0086724,0.0,0 STARLINK-6068,1 56798U 23078AH  23316.91667824 -.00867240  00000-0 -10562-1 0  9997,2 56798  69.9992 307.6348 0003477 265.4875 126.6285 15.62626698  5983,6758.21,92.153,382.425,377.725,0.0
56798.0,STARLINK-6068,PAYLOAD,2023-11-13 14:00:01,15.61363662,0.0003207,69.9992,305.7822,269.2085,270.5497,-0.012232,-0.00947928,0.0,0 STARLINK-6068,1 56798U 23078AH  23317.58334491 -.00947928  00000-0 -12232-1 0  9990,2 56798  69.9992 305.7822 0003207 269.2085 270.5497 15.61363662 26407,6761.854,92.227,385.888,381.551,0.0
56798.0,STARLINK-6068,PAYLOAD,2023-11-13 22:00:00,15.60675182,0.0003348,69.9995,304.8577,261.5965,350.8183,-0.011482,-0.00873333,0.0,0 STARLINK-6068,1 56798U 23078AH  23317.91667824 -.00873333  00000-0 -11482-1 0  9990,2 56798  69.9995 304.8577 0003348 261.5965 350.8183 15.60675182  5992,6763.843,92.268,387.972,383.443,0.0
56798.0,STARLINK-6068,PAYLOAD,2023-11-14 06:00:00,15.60034592,0.0003435,69.9993,303.9339,267.9175,56.3701,-0.012248,-0.00905845,0.0,0 STARLINK-6068,1 56798U 23078AH  23318.25001157 -.00905845  00000-0 -12248-1 0  9994,2 56798  69.9993 303.9339 0003435 267.9175  56.3701 15.60034592 26515,6765.694,92.306,389.883,385.235,0.0
56798.0,STARLINK-6068,PAYLOAD,2023-11-14 14:00:01,15.59404967,0.0003469,69.9991,303.0107,269.8544,125.5119,-0.01314,-0.00944776,0.0,0 STARLINK-6068,1 56798U 23078AH  23318.58334491 -.00944776  00000-0 -13140-1 0  9998,2 56798  69.9991 303.0107 0003469 269.8544 125.5119 15.59404967  5924,6767.515,92.343,391.728,387.032,0.0
56798.0,STARLINK-6068,PAYLOAD,2023-11-14 22:00:00,15.58716661,0.0003363,69.9995,302.0886,263.6898,201.9863,-0.012346,-0.00871456,0.0,0 STARLINK-6068,1 56798U 23078AH  23318.91667824 -.00871456  00000-0 -12346-1 0  9995,2 56798  69.9995 302.0886 0003363 263.6898 201.9863 15.58716661  5985,6769.507,92.384,393.649,389.096,0.0
56798.0,STARLINK-6068,PAYLOAD,2023-11-15 06:00:02,15.58072869,0.0003268,69.9997,301.1673,267.4256,267.8417,-0.013061,-0.00897235,0.0,0 STARLINK-6068,1 56798U 23078AH  23319.25002315 -.00897235  00000-0 -13061-1 0  9999,2 56798  69.9997 301.1673 0003268 267.4256 267.8417 15.58072869 26664,6771.372,92.422,395.45,391.024,0.0
56798.0,STARLINK-6068,PAYLOAD,2023-11-15 14:00:01,15.57455714,0.0003336,69.9995,300.247,265.197,338.7995,-0.014406,-0.00960392,0.0,0 STARLINK-6068,1 56798U 23078AH  23319.58335648 -.00960392  00000-0 -14406-1 0  9992,2 56798  69.9995 300.2470 0003336 265.1970 338.7995 15.57455714  6032,6773.161,92.458,397.285,392.766,0.0
56798.0,STARLINK-6068,PAYLOAD,2023-11-15 20:00:01,15.56903153,0.0003358,69.9995,299.5575,260.3476,304.6408,-0.01278,-0.00844892,0.0,0 STARLINK-6068,1 56798U 23078AH  23319.83334491 -.00844892  00000-0 -12780-1 0  9994,2 56798  69.9995 299.5575 0003358 260.3476 304.6408 15.56903153 26756,6774.763,92.491,398.903,394.353,0.0
